CAS-2T & KS-1Q          
1 41847U 16066G   20345.86276883  .00000193  00000-0  38496-4 0  9992
2 41847  98.6309  37.9369 0366475  63.1864 300.6310 14.38124779214777
NAYIF-1 (EO-88)         
1 42017U 17008BX  20345.85287326  .00004209  00000-0  16058-3 0  9993
2 42017  97.3417  50.7041 0007557  65.4156 294.7870 15.27187194212462
ZHUHAI-1 02 (CAS-4B)    
1 42759U 17034B   20345.92640632  .00000450  00000-0  40630-4 0  9994
2 42759  43.0165 137.3590 0009586  55.7809  82.3022 15.09992940192645
ZHUHAI-1 01 (CAS-4A)    
1 42761U 17034D   20346.16344907  .00000404  00000-0  37786-4 0  9997
2 42761  43.0166 135.2414 0009846  58.9193 282.7570 15.10072869192679
MAX VALIER SAT          
1 42778U 17036P   20346.10649928  .00002606  00000-0  11339-3 0  9993
2 42778  97.2835  34.6603 0013643 117.4267 242.8360 15.23037222192612
RADFXSAT (FOX-1B)       
1 43017U 17073E   20345.69261012  .00000951  00000-0  79010-4 0  9990
2 43017  97.7167 251.0669 0255621 195.6843 163.6345 14.79205721165211
FOX-1D (AO-92)          
1 43137U 18004AC  20346.13738773  .00003102  00000-0  12863-3 0  9994
2 43137  97.4295  55.9642 0009877 146.2854 213.9014 15.24594782161957
DIWATA-2B               
1 43678U 18084H   20346.03143942  .00000311  00000-0  36672-4 0  9993
2 43678  97.9037 104.6437 0008960 321.2058  38.8537 14.91684071115343
ES'HAIL 2               
1 43700U 18090A   20345.91368601  .00000154  00000-0  00000-0 0  9990
2 43700   0.0173  20.8740 0001557 267.1148 146.8259  1.00271402  7475
FOX-1CLIFF (AO-95)      
1 43770U 18099N   20345.73289550  .00000918  00000-0  88784-4 0  9998
2 43770  97.6889  53.8783 0013687 333.5316  26.5205 14.95130729110253
ITASAT 1                
1 43786U 18099AE  20346.15916928  .00000767  00000-0  74472-4 0  9999
2 43786  97.6909  54.8423 0014171 325.4599  34.5700 14.95454411110343
JY1SAT (JO-97)          
1 43803U 18099AX  20346.15150938  .00001200  00000-0  11290-3 0  9991
2 43803  97.6869  54.6150 0014034 325.5853  34.4458 14.95659992110345
PSAT2 (NO-104)          
1 44354U 19036R   20346.16083643  .00027588  00000-0  38988-3 0  9994
2 44354  28.5290 297.1194 0347134  43.1411 319.5845 15.07952562 80462
BRICSAT2 (NO-103)       
1 44355U 19036S   20346.14007276  .00048035  00000-0  61048-3 0  9994
2 44355  28.5273 276.3305 0309386  76.9194 286.5740 15.17715196 80677
JAISAT-1                
1 44419U 19038F   20345.68248493  .00002103  00000-0  12175-3 0  9996
2 44419  97.5628 305.4782 0019757 241.2988 118.6257 15.13194863 79246
DUCHIFAT-3              
1 44854U 19089C   20345.79836805  .00000798  00000-0  70616-4 0  9990
2 44854  36.9638 136.0773 0008435  38.8104 321.3241 14.99242889 54778
RS-44 & BREEZE-KM R/B   
1 44909U 19096E   20345.81660865  .00000003  00000-0 -34402-4 0  9996
2 44909  82.5225 238.1199 0217410 173.8969 186.4862 12.79707682 44746
ORBITAL FACTORY 2 (OF-2)
1 45113U 19071C   20345.93491785  .00004851  00000-0  15465-3 0  9994
2 45113  51.6424 230.5556 0012046 336.4640  23.5790 15.34338632 48212
HUSKYSAT-1              
1 45119U 19071J   20346.08686917  .00005981  00000-0  18717-3 0  9998
2 45119  51.6417 229.3200 0011362 333.1654  26.8739 15.34481396 48238
BY70-2                  
1 45857U 20042B   20346.14726859  .00001757  00000-0  25906-3 0  9999
2 45857  98.0010  57.7769 0012507 101.4221 258.8383 14.76533696 23750
SALSAT                  
1 46495U 20068K   20345.90064448  .00001525  00000-0  11674-3 0  9998
2 46495  97.6756 278.7248 0017413 354.1033   5.9985 15.03290619 11007
BY70-3                  
1 46839U 20079N   20346.07103559  .00004355  00000-0  14146-3 0  9999
2 46839  97.2622  57.6244 0008087 151.0734 293.6452 15.32418034  5346
